IRIDIUM 7               
1 24793U 97020B   25046.91992761  .00000807  00000+0  27255-3 0  9992
2 24793  86.3938 227.6761 0002189  98.0229 262.1216 14.35763222454496
IRIDIUM 5               
1 24795U 97020D   25047.51521745  .00010585  00000+0  90956-3 0  9993
2 24795  86.3935 139.3137 0111782 210.1269 149.3502 14.92527028467484
IRIDIUM 4               
1 24796U 97020E   25046.91015283  .00000863  00000+0  28669-3 0  9992
2 24796  86.3938 224.6368 0001986  94.7821 265.3603 14.36673676455056
IRIDIUM 914             
1 24836U 97030A   25047.52847934  .00000942  00000+0  28910-3 0  9999
2 24836  86.3904 233.3452 0000571 129.6607 230.4642 14.40658680451857
IRIDIUM 16              
1 24841U 97030F   25047.09917131  .00000775  00000+0  24739-3 0  9993
2 24841  86.3981 256.1434 0004238  96.6128 263.5553 14.38516442449857
IRIDIUM 911             
1 24842U 97030G   25047.48938216  .00001062  00000+0  28395-3 0  9996
2 24842  86.4407 254.8735 0015592 134.4312 225.8170 14.47368135457604
IRIDIUM 17              
1 24870U 97034B   25046.94201614  .00000809  00000+0  26321-3 0  9991
2 24870  86.3931 285.7703 0003559  70.8109 289.3474 14.37633872446164
IRIDIUM 920             
1 24871U 97034C   25046.87973608  .00000742  00000+0  22298-3 0  9998
2 24871  86.3924 265.2825 0013289 117.3848 242.8706 14.41335189449107
